STARLINK-2299
1 48029U 21024BE  26061.16668981  .00048993  00000+0  30593-2 0  9996
2 48029  53.0638   5.3673 0001901  86.1459  86.7327 15.09024913  5820
